{"type": "FeatureCollection", "features": [ {"type": "Feature", "properties": {"norad_id": 36011, "name": "IRIDIUM 33 DEB", "group": "iridium-33-debris", "lat": -49.05158965197401, "lon": 30.316380720544043, "alt_km": 763.5495573944727, "timestamp": "2025-12-14T18:52:55.889175+00:00", "meta": {"OBJECT_NAME": "IRIDIUM 33 DEB", "OBJECT_ID": "1997-051US", "EPOCH": "2025-12-11T21:42:29.079072", "MEAN_MOTION": 14.41326157, "ECCENTRICITY": 0.0017563, "INCLINATION": 86.3411, "RA_OF_ASC_NODE": 35.7829, "ARG_OF_PERICENTER": 218.6873, "MEAN_ANOMALY": 266.0791, "EPHEMERIS_TYPE": 0, "CLASSIFICATION_TYPE": "U", "NORAD_CAT_ID": 36011, "ELEMENT_SET_NO": 999, "REV_AT_EPOCH": 64528, "BSTAR": 0.00076231, "MEAN_MOTION_DOT": 2.489e-05, "MEAN_MOTION_DDOT": 0}, "tle": {"line1": "1 36011U 97051US  25345.90450323  .00002489  00000+0  76231-3 0  9992", "line2": "2 36011  86.3411  35.7829 0017563 218.6873 266.0791 14.41326157645287"}}, "geometry": {"type": "Point", "coordinates": [30.316380720544043, -49.05158965197401]}}, {"type": "Feature", "properties": {"norad_id": 36012, "name": "IRIDIUM 33 DEB", "group": "iridium-33-debris", "lat": 71.64894042744571, "lon": -42.4795159434881, "alt_km": 973.5289457555318, "timestamp": "2025-12-14T18:52:55.889185+00:00", "meta": {"OBJECT_NAME": "IRIDIUM 33 DEB", "OBJECT_ID": "1997-051UT", "EPOCH": "2025-12-13T03:36:39.839040", "MEAN_MOTION": 14.19040776, "ECCENTRICITY": 0.02117527, "INCLINATION": 86.4419, "RA_OF_ASC_NODE": 307.3686, "ARG_OF_PERICENTER": 261.8907, "MEAN_ANOMALY": 95.8211, "EPHEMERIS_TYPE": 0, "CLASSIFICATION_TYPE": "U", "NORAD_CAT_ID": 36012, "ELEMENT_SET_NO": 999, "REV_AT_EPOCH": 65490, "BSTAR": 0.0088870781, "MEAN_MOTION_DOT": 0.0002327, "MEAN_MOTION_DDOT": 0}, "tle": {"line1": "1 36012U 97051UT  25347.15046110  .00023270  00000+0  88871-2 0  9990", "line2": "2 36012  86.4419 307.3686 0211752 261.8907  95.8211 14.19040776654909"}}, "geometry": {"type": "Point", "coordinates": [-42.4795159434881, 71.64894042744571]}}, {"type": "Feature", "properties": {"norad_id": 36028, "name": "IRIDIUM 33 DEB", "group": "iridium-33-debris", "lat": -4.513028650272696, "lon": -54.55535563231239, "alt_km": 575.1698588215704, "timestamp": "2025-12-14T18:52:55.889195+00:00", "meta": {"OBJECT_NAME": "IRIDIUM 33 DEB", "OBJECT_ID": "1997-051VK", "EPOCH": "2025-12-13T04:21:30.824928", "MEAN_MOTION": 14.95340527, "ECCENTRICITY": 0.00215137, "INCLINATION": 86.3216, "RA_OF_ASC_NODE": 306.4905, "ARG_OF_PERICENTER": 52.2095, "MEAN_ANOMALY": 308.1078, "EPHEMERIS_TYPE": 0, "CLASSIFICATION_TYPE": "U", "NORAD_CAT_ID": 36028, "ELEMENT_SET_NO": 999, "REV_AT_EPOCH": 87131, "BSTAR": 0.0034254157, "MEAN_MOTION_DOT": 0.00038122, "MEAN_MOTION_DDOT": 0}, "tle": {"line1": "1 36028U 97051VK  25347.18160677  .00038122  00000+0  34254-2 0  9993", "line2": "2 36028  86.3216 306.4905 0021513  52.2095 308.1078 14.95340527871316"}}, "geometry": {"type": "Point", "coordinates": [-54.55535563231239, -4.513028650272696]}}, {"type": "Feature", "properties": {"norad_id": 36080, "name": "IRIDIUM 33 DEB", "group": "iridium-33-debris", "lat": -35.40726863541619, "lon": -170.28235267672562, "alt_km": 737.6869369773522, "timestamp": "2025-12-14T18:52:55.889206+00:00", "meta": {"OBJECT_NAME": "IRIDIUM 33 DEB", "OBJECT_ID": "1997-051VM", "EPOCH": "2025-12-12T07:47:12.921504", "MEAN_MOTION": 14.46603626, "ECCENTRICITY": 0.0018143, "INCLINATION": 86.3202, "RA_OF_ASC_NODE": 8.1679, "ARG_OF_PERICENTER": 158.128, "MEAN_ANOMALY": 202.0701, "EPHEMERIS_TYPE": 0, "CLASSIFICATION_TYPE": "U", "NORAD_CAT_ID": 36080, "ELEMENT_SET_NO": 999, "REV_AT_EPOCH": 47408, "BSTAR": 0.00097514146, "MEAN_MOTION_DOT": 3.542e-05, "MEAN_MOTION_DDOT": 0}, "tle": {"line1": "1 36080U 97051VM  25346.32445511  .00003542  00000+0  97514-3 0  9996", "line2": "2 36080  86.3202   8.1679 0018143 158.1280 202.0701 14.46603626474086"}}, "geometry": {"type": "Point", "coordinates": [-170.28235267672562, -35.40726863541619]}}, {"type": "Feature", "properties": {"norad_id": 36083, "name": "IRIDIUM 33 DEB", "group": "iridium-33-debris", "lat": -76.83929213718174, "lon": 17.405467467030473, "alt_km": 747.9003421415446, "timestamp": "2025-12-14T18:52:55.889216+00:00", "meta": {"OBJECT_NAME": "IRIDIUM 33 DEB", "OBJECT_ID": "1997-051VQ", "EPOCH": "2025-12-06T21:32:26.892672", "MEAN_MOTION": 14.43175138, "ECCENTRICITY": 0.00247889, "INCLINATION": 86.3442, "RA_OF_ASC_NODE": 36.6683, "ARG_OF_PERICENTER": 243.3344, "MEAN_ANOMALY": 116.5319, "EPHEMERIS_TYPE": 0, "CLASSIFICATION_TYPE": "U", "NORAD_CAT_ID": 36083, "ELEMENT_SET_NO": 999, "REV_AT_EPOCH": 85365, "BSTAR": 0.00098432537, "MEAN_MOTION_DOT": 3.337e-05, "MEAN_MOTION_DDOT": 0}, "tle": {"line1": "1 36083U 97051VQ  25340.89753348  .00003337  00000+0  98433-3 0  9998", "line2": "2 36083  86.3442  36.6683 0024788 243.3344 116.5319 14.43175138853653"}}, "geometry": {"type": "Point", "coordinates": [17.405467467030473, -76.83929213718174]}}, {"type": "Feature", "properties": {"norad_id": 36390, "name": "IRIDIUM 33 DEB", "group": "iridium-33-debris", "lat": -35.44912621947016, "lon": -64.19195412996942, "alt_km": 676.837253346539, "timestamp": "2025-12-14T18:52:55.889226+00:00", "meta": {"OBJECT_NAME": "IRIDIUM 33 DEB", "OBJECT_ID": "1997-051VU", "EPOCH": "2025-12-10T04:13:18.491808", "MEAN_MOTION": 14.73548967, "ECCENTRICITY": 0.00303441, "INCLINATION": 86.2912, "RA_OF_ASC_NODE": 300.5678, "ARG_OF_PERICENTER": 170.4809, "MEAN_ANOMALY": 189.6991, "EPHEMERIS_TYPE": 0, "CLASSIFICATION_TYPE": "U", "NORAD_CAT_ID": 36390, "ELEMENT_SET_NO": 999, "REV_AT_EPOCH": 66224, "BSTAR": 0.0016206136, "MEAN_MOTION_DOT": 0.00010646, "MEAN_MOTION_DDOT": 0}, "tle": {"line1": "1 36390U 97051VU  25344.17590847  .00010646  00000+0  16206-2 0  9995", "line2": "2 36390  86.2912 300.5678 0030344 170.4809 189.6991 14.73548967662240"}}, "geometry": {"type": "Point", "coordinates": [-64.19195412996942, -35.44912621947016]}}, {"type": "Feature", "properties": {"norad_id": 36483, "name": "IRIDIUM 33 DEB", "group": "iridium-33-debris", "lat": 74.53147181694747, "lon": -141.61229556508994, "alt_km": 724.5527594444893, "timestamp": "2025-12-14T18:52:55.889236+00:00", "meta": {"OBJECT_NAME": "IRIDIUM 33 DEB", "OBJECT_ID": "1997-051VZ", "EPOCH": "2025-12-13T10:50:21.003936", "MEAN_MOTION": 14.45815478, "ECCENTRICITY": 0.00112504, "INCLINATION": 86.3797, "RA_OF_ASC_NODE": 52.1844, "ARG_OF_PERICENTER": 123.854, "MEAN_ANOMALY": 236.3734, "EPHEMERIS_TYPE": 0, "CLASSIFICATION_TYPE": "U", "NORAD_CAT_ID": 36483, "ELEMENT_SET_NO": 999, "REV_AT_EPOCH": 65156, "BSTAR": 0.00081590403, "MEAN_MOTION_DOT": 2.915e-05, "MEAN_MOTION_DDOT": 0}, "tle": {"line1": "1 36483U 97051VZ  25347.45163199  .00002915  00000+0  81590-3 0  9997", "line2": "2 36483  86.3797  52.1844 0011250 123.8540 236.3734 14.45815478651560"}}, "geometry": {"type": "Point", "coordinates": [-141.61229556508994, 74.53147181694747]}}, {"type": "Feature", "properties": {"norad_id": 36490, "name": "IRIDIUM 33 DEB", "group": "iridium-33-debris", "lat": -45.73964618859858, "lon": -166.72050418290158, "alt_km": 651.3116605885562, "timestamp": "2025-12-14T18:52:55.889246+00:00", "meta": {"OBJECT_NAME": "IRIDIUM 33 DEB", "OBJECT_ID": "1997-051WG", "EPOCH": "2025-12-13T19:05:14.805600", "MEAN_MOTION": 14.76226101, "ECCENTRICITY": 0.0005505, "INCLINATION": 86.3659, "RA_OF_ASC_NODE": 9.9872, "ARG_OF_PERICENTER": 81.5589, "MEAN_ANOMALY": 278.6254, "EPHEMERIS_TYPE": 0, "CLASSIFICATION_TYPE": "U", "NORAD_CAT_ID": 36490, "ELEMENT_SET_NO": 999, "REV_AT_EPOCH": 86500, "BSTAR": 0.0018329982, "MEAN_MOTION_DOT": 0.00012721, "MEAN_MOTION_DDOT": 0}, "tle": {"line1": "1 36490U 97051WG  25347.79531025  .00012721  00000+0  18330-2 0  9996", "line2": "2 36490  86.3659   9.9872 0005505  81.5589 278.6254 14.76226101865000"}}, "geometry": {"type": "Point", "coordinates": [-166.72050418290158, -45.73964618859858]}}, {"type": "Feature", "properties": {"norad_id": 36493, "name": "IRIDIUM 33 DEB", "group": "iridium-33-debris", "lat": 67.44872679746204, "lon": 19.594623661411458, "alt_km": 667.2430607871765, "timestamp": "2025-12-14T18:52:55.889257+00:00", "meta": {"OBJECT_NAME": "IRIDIUM 33 DEB", "OBJECT_ID": "1997-051WK", "EPOCH": "2025-12-13T19:37:43.307040", "MEAN_MOTION": 14.65251976, "ECCENTRICITY": 0.00100634, "INCLINATION": 86.3576, "RA_OF_ASC_NODE": 11.2011, "ARG_OF_PERICENTER": 1.6705, "MEAN_ANOMALY": 358.4539, "EPHEMERIS_TYPE": 0, "CLASSIFICATION_TYPE": "U", "NORAD_CAT_ID": 36493, "ELEMENT_SET_NO": 999, "REV_AT_EPOCH": 74534, "BSTAR": 0.0014782162, "MEAN_MOTION_DOT": 7.993e-05, "MEAN_MOTION_DDOT": 0}, "tle": {"line1": "1 36493U 97051WK  25347.81786235  .00007993  00000+0  14782-2 0  9999", "line2": "2 36493  86.3576  11.2011 0010063   1.6705 358.4539 14.65251976745343"}}, "geometry": {"type": "Point", "coordinates": [19.594623661411458, 67.44872679746204]}}, {"type": "Feature", "properties": {"norad_id": 37548, "name": "IRIDIUM 33 DEB", "group": "iridium-33-debris", "lat": 27.704927061047297, "lon": -139.44400596087328, "alt_km": 704.3471179799644, "timestamp": "2025-12-14T18:52:55.889267+00:00", "meta": {"OBJECT_NAME": "IRIDIUM 33 DEB", "OBJECT_ID": "1997-051XH", "EPOCH": "2025-12-13T10:44:34.243584", "MEAN_MOTION": 14.51312722, "ECCENTRICITY": 0.00257089, "INCLINATION": 86.3511, "RA_OF_ASC_NODE": 43.059, "ARG_OF_PERICENTER": 186.1845, "MEAN_ANOMALY": 173.9047, "EPHEMERIS_TYPE": 0, "CLASSIFICATION_TYPE": "U", "NORAD_CAT_ID": 37548, "ELEMENT_SET_NO": 999, "REV_AT_EPOCH": 65542, "BSTAR": 0.0016301085, "MEAN_MOTION_DOT": 6.537e-05, "MEAN_MOTION_DDOT": 0}, "tle": {"line1": "1 37548U 97051XH  25347.44761856  .00006537  00000+0  16301-2 0  9994", "line2": "2 37548  86.3511  43.0590 0025708 186.1845 173.9047 14.51312722655420"}}, "geometry": {"type": "Point", "coordinates": [-139.44400596087328, 27.704927061047297]}}]}